IRIDIUM 166             
1 43570U 18061B   25147.89373293  .00000087  00000+0  24134-4 0  9990
2 43570  86.4004 217.7076 0002567  90.8174 269.3316 14.34218276358174
IRIDIUM 158             
1 43571U 18061C   25147.44340872  .00000117  00000+0  34827-4 0  9993
2 43571  86.4002 217.9052 0002433  98.6536 261.4936 14.34218276358079
IRIDIUM 165             
1 43572U 18061D   25147.88739047  .00000060  00000+0  14245-4 0  9997
2 43572  86.4004 217.7587 0002376  89.5392 270.6076 14.34218082358160
IRIDIUM 155             
1 43573U 18061E   25147.91910421  .00000071  00000+0  18140-4 0  9999
2 43573  86.4001 217.6339 0002605  98.3797 261.7694 14.34217777358138
IRIDIUM 154             
1 43574U 18061F   25147.90007563  .00000061  00000+0  14770-4 0  9997
2 43574  86.4005 217.7563 0002348  94.5358 265.6106 14.34217954358181
IRIDIUM 163             
1 43575U 18061G   25147.25313073  .00000016  00000+0 -12697-5 0  9990
2 43575  86.4004 217.9538 0002125  99.3144 260.8292 14.34217708358061
IRIDIUM 156             
1 43576U 18061H   25147.92544707  .00000067  00000+0  16901-4 0  9991
2 43576  86.4002 217.6801 0002700  95.6539 264.4965 14.34217931358151
IRIDIUM 164             
1 43577U 18061J   25147.76688128  .00000080  00000+0  21457-4 0  9997
2 43577  86.4003 217.7804 0002397  87.6043 272.5427 14.34218071358171
